     2.100          NAVIGATION                              RINEX VERSION / TYPE
fic2rin                                 10/23/2016 00:04:40 PGM / RUN BY / DATE
                                                            END OF HEADER
18 16 10 22 13 59 44.0  .569257419556D-03  .341060513165D-11  .000000000000D+00
     .100000000000D+01  .884375000000D+01  .567666502731D-08 -.589632064999D+00
     .551342964172D-06  .172579082428D-01  .851228833199D-05  .515372002792D+04
     .568784000000D+06 -.178813934326D-06  .249399122646D+01  .141561031342D-06
     .925236397455D+00  .200062500000D+03 -.185445750288D+01 -.885286875752D-08
     .122505102829D-09  .100000000000D+01  .191900000000D+04  .000000000000D+00
     .240000000000D+01  .000000000000D+00 -.111758708954D-07  .100000000000D+01
     .567456000000D+06  .400000000000D+01
24 16 10 22 13 59 44.0 -.249831937253D-04 -.568434188608D-12  .000000000000D+00
     .800000000000D+01  .489687500000D+02  .463447875893D-08  .231931805586D+01
     .252388417721D-05  .482779880986D-02  .930204987526D-05  .515372612762D+04
     .568784000000D+06 -.102445483208D-06 -.168440202588D+01 -.335276126862D-07
     .947601775783D+00  .191062500000D+03  .394896185697D+00 -.815355391396D-08
    -.218937691062D-09  .100000000000D+01  .191900000000D+04  .000000000000D+00
     .240000000000D+01  .000000000000D+00  .232830643654D-08  .800000000000D+01
     .568146000000D+06  .400000000000D+01
18 16 10 22 15 59 44.0  .569282099605D-03  .341060513165D-11  .000000000000D+00
     .900000000000D+01  .553125000000D+01  .570416617285D-08  .460513227116D+00
     .402331352234D-06  .172578649363D-01  .869110226631D-05  .515371990395D+04
     .575984000000D+06 -.167638063431D-06  .249392739057D+01  .502914190292D-07
     .925237269355D+00  .197750000000D+03 -.185444138591D+01 -.887144095970D-08
     .103218585183D-09  .100000000000D+01  .191900000000D+04  .000000000000D+00
     .240000000000D+01  .000000000000D+00 -.111758708954D-07  .900000000000D+01
     .568806000000D+06  .400000000000D+01
24 16 10 22 15 59 44.0 -.249873846769D-04 -.568434188608D-12  .000000000000D+00
     .190000000000D+02  .535937500000D+02  .454090343257D-08 -.291368829746D+01
     .273622572422D-05  .482732942328D-02  .929087400436D-05  .515372686768D+04
     .575984000000D+06 -.372529029846D-08 -.168446032316D+01 -.447034835815D-07
     .947600642022D+00  .193343750000D+03  .394866669862D+00 -.805854995667D-08
    -.217509060125D-09  .100000000000D+01  .191900000000D+04  .000000000000D+00
     .240000000000D+01  .000000000000D+00  .232830643654D-08  .190000000000D+02
     .568806000000D+06  .400000000000D+01
 1 16 10 22 16  0  0.0  .380333513021D-04  .125055521494D-11  .000000000000D+00
     .460000000000D+02 -.556875000000D+02  .439518307702D-08  .305785940229D+01
    -.292621552944D-05  .596776371822D-02  .914372503757D-05  .515370525169D+04
     .576000000000D+06 -.707805156708D-07  .149002699287D+01 -.745058059692D-07
     .965206599243D+00  .206843750000D+03  .563601939369D+00 -.785175562857D-08
     .117504894551D-09  .100000000000D+01  .191900000000D+04  .000000000000D+00
     .240000000000D+01  .000000000000D+00  .512227416039D-08  .460000000000D+02
     .568806000000D+06  .400000000000D+01
 2 16 10 22 16  0  0.0  .536325853318D-03 -.522959453519D-11  .000000000000D+00
     .840000000000D+02 -.717187500000D+02  .479841415892D-08 -.275410579101D+01
    -.372901558876D-05  .160272688372D-01  .990927219391D-05  .515366592026D+04
     .576000000000D+06  .249594449997D-06  .144129008480D+01 -.167638063431D-06
     .944052527326D+00  .173718750000D+03 -.207513725124D+01 -.796354599937D-08
     .175364447490D-09  .100000000000D+01  .191900000000D+04  .000000000000D+00
     .485000000000D+01  .000000000000D+00 -.204890966415D-07  .840000000000D+02
     .568806000000D+06  .400000000000D+01
 3 16 10 22 16  0  0.0 -.939075835049D-04 -.193267624127D-11  .000000000000D+00
     .610000000000D+02  .111875000000D+02  .470448167483D-08  .179269993047D+01
     .553205609322D-06  .292597571388D-03  .866688787937D-05  .515359766769D+04
     .576000000000D+06 -.782310962677D-07  .253210633840D+01  .279396772385D-07
     .959544256321D+00  .210281250000D+03  .716334703496D+00 -.806426448041D-08
     .181436128972D-09  .100000000000D+01  .191900000000D+04  .000000000000D+00
     .240000000000D+01  .000000000000D+00  .186264514923D-08  .610000000000D+02
     .568806000000D+06  .400000000000D+01
 4 16 10 22 16  0  0.0  .101500190794D-04  .329691829393D-11  .000000000000D+00
     .390000000000D+02  .109375000000D+02  .456983320904D-08  .346612157559D+00
     .426545739174D-06  .838771543931D-02  .791996717453D-05  .515359143448D+04
     .576000000000D+06 -.372529029846D-08 -.259187222099D+01 -.128522515297D-06
     .966430003986D+00  .234593750000D+03 -.991460412363D+00 -.813783897366D-08
    -.388587614805D-09  .100000000000D+01  .191900000000D+04  .000000000000D+00
     .340000000000D+01  .630000000000D+02 -.419095158577D-08  .390000000000D+02
     .568806000000D+06  .400000000000D+01
 5 16 10 22 16  0  0.0 -.828909687698D-04  .250111042988D-11  .000000000000D+00
     .700000000000D+02  .108437500000D+02  .511128433408D-08 -.286980841493D+00
     .556930899620D-06  .484764238354D-02  .824965536594D-05  .515361427689D+04
     .576000000000D+06  .279396772385D-07  .251822240904D+01  .800937414169D-07
     .946556807548D+00  .211406250000D+03  .536322050138D+00 -.831784647169D-08
     .159649507186D-09  .100000000000D+01  .191900000000D+04  .000000000000D+00
     .240000000000D+01  .000000000000D+00 -.107102096081D-07  .700000000000D+02
     .568806000000D+06  .400000000000D+01
 6 16 10 22 16  0  0.0  .262980815023D-03  .500222085975D-11  .000000000000D+00
     .260000000000D+02 -.590937500000D+02  .449911597767D-08 -.261473052664D+01
    -.296905636787D-05  .210221973248D-03  .953860580921D-05  .515379024315D+04
     .576000000000D+06  .186264514923D-07  .148162620921D+01  .167638063431D-07
     .965014775573D+00  .197843750000D+03 -.169786130816D+01 -.796461747257D-08
     .111076055335D-09  .100000000000D+01  .191900000000D+04  .000000000000D+00
     .240000000000D+01  .000000000000D+00  .419095158577D-08  .260000000000D+02
     .568806000000D+06  .400000000000D+01
 7 16 10 22 16  0  0.0  .417313538492D-03 -.318323145621D-11  .000000000000D+00
     .970000000000D+02  .379687500000D+02  .423124767702D-08  .240390275474D+01
     .187009572983D-05  .100514199585D-01  .868365168571D-05  .515363012505D+04
     .576000000000D+06 -.145286321640D-06 -.163471698450D+01 -.912696123123D-07
     .964521380118D+00  .215343750000D+03 -.262054718255D+01 -.787675666996D-08
    -.211437378644D-09  .100000000000D+01  .191900000000D+04  .000000000000D+00
     .340000000000D+01  .000000000000D+00 -.111758708954D-07  .970000000000D+02
     .568806000000D+06  .400000000000D+01
 8 16 10 22 16  0  0.0 -.363150611520D-04 -.125055521494D-11  .000000000000D+00
     .780000000000D+02 -.440312500000D+02  .456304721209D-08 -.299211118978D+00
    -.249221920967D-05  .186404725537D-02  .481680035591D-05  .515376817513D+04
     .576000000000D+06 -.372529029846D-08  .428465067587D+00 -.484287738800D-07
     .964915867682D+00  .287562500000D+03 -.101111419742D+01 -.827320175492D-08
     .864321716755D-10  .100000000000D+01  .191900000000D+04  .000000000000D+00
     .240000000000D+01  .000000000000D+00  .512227416039D-08  .780000000000D+02
     .568806000000D+06  .400000000000D+01
 9 16 10 22 16  0  0.0  .230009667575D-03  .727595761418D-11  .000000000000D+00
     .100000000000D+02  .151250000000D+02  .488413201513D-08 -.980229283056D+00
     .724568963051D-06  .618976540864D-03  .697933137417D-05  .515375951767D+04
     .576000000000D+06 -.223517417908D-07 -.271332573679D+01 -.335276126862D-07
     .954697064519D+00  .240031250000D+03  .187445397065D+01 -.824034324337D-08
    -.294297972978D-09  .100000000000D+01  .191900000000D+04  .000000000000D+00
     .240000000000D+01  .000000000000D+00  .139698386192D-08  .100000000000D+02
     .568806000000D+06  .400000000000D+01
10 16 10 22 16  0  0.0 -.109693966806D-03 -.272848410532D-11  .000000000000D+00
     .940000000000D+02  .337500000000D+01  .480448584041D-08  .986926197255D+00
     .255182385445D-06  .180989911314D-02  .857003033161D-05  .515367733192D+04
     .576000000000D+06  .800937414169D-07  .252822781342D+01 -.800937414169D-07
     .959750826206D+00  .211843750000D+03 -.291185746865D+01 -.814248202420D-08
     .118933525487D-09  .100000000000D+01  .191900000000D+04  .000000000000D+00
     .240000000000D+01  .000000000000D+00  .232830643654D-08  .940000000000D+02
     .568806000000D+06  .400000000000D+01
11 16 10 22 16  0  0.0 -.667601823807D-03 -.102318153949D-11  .000000000000D+00
     .780000000000D+02 -.764687500000D+02  .589988861119D-08  .249459684967D+01
    -.406615436077D-05  .168087163474D-01  .661052763462D-05  .515368638611D+04
     .576000000000D+06  .186264514923D-06  .110250533333D+01 -.134110450745D-06
     .898114419991D+00  .216125000000D+03  .158910895976D+01 -.848856786864D-08
    -.750031241812D-11  .100000000000D+01  .191900000000D+04  .000000000000D+00
     .340000000000D+01  .000000000000D+00 -.121071934700D-07  .780000000000D+02
     .568806000000D+06  .400000000000D+01
12 16 10 22 16  0  0.0  .389343593270D-03  .113686837722D-12  .000000000000D+00
     .550000000000D+02  .538125000000D+02  .386801826134D-08  .181029654257D+01
     .270456075668D-05  .603949837387D-02  .559352338314D-05  .515364226723D+04
     .576000000000D+06 -.106170773506D-06 -.555066780828D+00 -.372529029846D-07
     .990142144698D+00  .285093750000D+03  .783947007180D+00 -.799569019545D-08
     .205008539429D-09  .100000000000D+01  .191900000000D+04  .000000000000D+00
     .240000000000D+01  .000000000000D+00 -.125728547573D-07  .550000000000D+02
     .568806000000D+06  .400000000000D+01
